start=new Date('2021-09-08T00:00:00.000Z').valueOf();
sats=[{"ELEMENT_SET_NO":"999","EPHEMERIS_TYPE":"0","FILE":"3110443","RCS_SIZE":"LARGE","OBJECT_ID":"2021-006E","DECAY_DATE":null,"SITE":"AFETR","EPOCH":"2021-09-07T21:23:05.410176","OBJECT_TYPE":"PAYLOAD","PERIOD":"95.091","MEAN_MOTION_DDOT":"0.0000000000000","COUNTRY_CODE":"US","REV_AT_EPOCH":"3455","MEAN_ELEMENT_THEORY":"SGP4","TLE_LINE1":"1 47417U 21006E   21250.89103484 -.00003459  00000-0 -18538-3 0  9990","OBJECT_NAME":"STARLINK-2203","RA_OF_ASC_NODE":"311.2922","MEAN_MOTION":"15.14346258","TLE_LINE2":"2 47417  97.4893 311.2922 0002701 185.0588 175.0617 15.14346258 34553","MEAN_ANOMALY":"175.0617","INCLINATION":"97.4893","ARG_OF_PERICENTER":"185.0588","REF_FRAME":"TEME","TIME_SYSTEM":"UTC","LAUNCH_DATE":"2021-01-24","MEAN_MOTION_DOT":"-0.00003459","CLASSIFICATION_TYPE":"U","GP_ID":"184282754","PERIAPSIS":"521.102","CENTER_NAME":"EARTH","APOAPSIS":"524.830","ECCENTRICITY":"0.00027010","NORAD_CAT_ID":"47417","SEMIMAJOR_AXIS":"6901.101","BSTAR":"-0.00018538000000"},{"REF_FRAME":"TEME","LAUNCH_DATE":"2021-01-24","TIME_SYSTEM":"UTC","ARG_OF_PERICENTER":"315.2196","INCLINATION":"97.4854","MEAN_ANOMALY":"44.8932","NORAD_CAT_ID":"47418","ECCENTRICITY":"0.00011900","BSTAR":"0.00012269000000","SEMIMAJOR_AXIS":"6941.141","GP_ID":"184283504","CLASSIFICATION_TYPE":"U","MEAN_MOTION_DOT":"0.00001520","APOAPSIS":"563.832","CENTER_NAME":"EARTH","PERIAPSIS":"562.180","SITE":"AFETR","EPOCH":"2021-09-07T15:40:40.292832","OBJECT_TYPE":"PAYLOAD","OBJECT_ID":"2021-006F","DECAY_DATE":null,"RCS_SIZE":"LARGE","COUNTRY_CODE":"US","REV_AT_EPOCH":"3436","MEAN_ELEMENT_THEORY":"SGP4","PERIOD":"95.919","MEAN_MOTION_DDOT":"0.0000000000000","ELEMENT_SET_NO":"999","FILE":"3110443","EPHEMERIS_TYPE":"0","RA_OF_ASC_NODE":"308.6386","TLE_LINE2":"2 47418  97.4854 308.6386 0001190 315.2196  44.8932 15.01262056 34369","MEAN_MOTION":"15.01262056","TLE_LINE1":"1 47418U 21006F   21250.65324413  .00001520  00000-0  12269-3 0  9992","OBJECT_NAME":"STARLINK-2204"},{"APOAPSIS":"524.524","CENTER_NAME":"EARTH","PERIAPSIS":"521.605","GP_ID":"184283756","MEAN_MOTION_DOT":"-0.00000772","CLASSIFICATION_TYPE":"U","BSTAR":"-0.00003867600000","SEMIMAJOR_AXIS":"6901.200","NORAD_CAT_ID":"47419","ECCENTRICITY":"0.00021150","ARG_OF_PERICENTER":"196.5119","INCLINATION":"97.4888","MEAN_ANOMALY":"163.6044","LAUNCH_DATE":"2021-01-24","TIME_SYSTEM":"UTC","REF_FRAME":"TEME","OBJECT_NAME":"STARLINK-2205","TLE_LINE1":"1 47419U 21006G   21250.89150429 -.00000772  00000-0 -38676-4 0  9994","MEAN_MOTION":"15.14313716","TLE_LINE2":"2 47419  97.4888 311.2925 0002115 196.5119 163.6044 15.14313716 34558","RA_OF_ASC_NODE":"311.2925","FILE":"3110443","EPHEMERIS_TYPE":"0","ELEMENT_SET_NO":"999","COUNTRY_CODE":"US","MEAN_ELEMENT_THEORY":"SGP4","REV_AT_EPOCH":"3455","PERIOD":"95.093","MEAN_MOTION_DDOT":"0.0000000000000","OBJECT_TYPE":"PAYLOAD","SITE":"AFETR","EPOCH":"2021-09-07T21:23:45.970656","OBJECT_ID":"2021-006G","DECAY_DATE":null,"RCS_SIZE":"LARGE"},{"TLE_LINE1":"1 47420U 21006H   21250.69372308  .00000141  00000-0  11242-4 0  9994","OBJECT_NAME":"STARLINK-2206","RA_OF_ASC_NODE":"311.0942","MEAN_MOTION":"15.14320492","TLE_LINE2":"2 47420  97.4883 311.0942 0002376 203.6797 156.4326 15.14320492 34522","ELEMENT_SET_NO":"999","FILE":"3110443","EPHEMERIS_TYPE":"0","OBJECT_TYPE":"PAYLOAD","SITE":"AFETR","EPOCH":"2021-09-07T16:38:57.674112","DECAY_DATE":null,"OBJECT_ID":"2021-006H","RCS_SIZE":"LARGE","REV_AT_EPOCH":"3452","COUNTRY_CODE":"US","MEAN_ELEMENT_THEORY":"SGP4","PERIOD":"95.092","MEAN_MOTION_DDOT":"0.0000000000000","GP_ID":"184284506","MEAN_MOTION_DOT":"0.00000141","CLASSIFICATION_TYPE":"U","APOAPSIS":"524.684","CENTER_NAME":"EARTH","PERIAPSIS":"521.405","NORAD_CAT_ID":"47420","ECCENTRICITY":"0.00023760","BSTAR":"0.00001124200000","SEMIMAJOR_AXIS":"6901.179","ARG_OF_PERICENTER":"203.6797","INCLINATION":"97.4883","MEAN_ANOMALY":"156.4326","REF_FRAME":"TEME","LAUNCH_DATE":"2021-01-24","TIME_SYSTEM":"UTC"},{"INCLINATION":"97.4888","MEAN_ANOMALY":"159.7631","ARG_OF_PERICENTER":"200.3517","TIME_SYSTEM":"UTC","LAUNCH_DATE":"2021-01-24","REF_FRAME":"TEME","PERIAPSIS":"521.578","APOAPSIS":"524.497","CENTER_NAME":"EARTH","CLASSIFICATION_TYPE":"U","MEAN_MOTION_DOT":"-0.00000243","GP_ID":"184283254","SEMIMAJOR_AXIS":"6901.172","BSTAR":"-0.00000973660000","ECCENTRICITY":"0.00021150","NORAD_CAT_ID":"47421","FILE":"3110443","EPHEMERIS_TYPE":"0","ELEMENT_SET_NO":"999","MEAN_MOTION_DDOT":"0.0000000000000","PERIOD":"95.092","COUNTRY_CODE":"US","REV_AT_EPOCH":"3455","MEAN_ELEMENT_THEORY":"SGP4","RCS_SIZE":"LARGE","OBJECT_TYPE":"PAYLOAD","SITE":"AFETR","EPOCH":"2021-09-07T21:25:04.948896","DECAY_DATE":null,"OBJECT_ID":"2021-006J","OBJECT_NAME":"STARLINK-2207","TLE_LINE1":"1 47421U 21006J   21250.89241839 -.00000243  00000-0 -97366-5 0  9998","TLE_LINE2":"2 47421  97.4888 311.2902 0002115 200.3517 159.7631 15.14322792 34554","MEAN_MOTION":"15.14322792","RA_OF_ASC_NODE":"311.2902"},{"CENTER_NAME":"EARTH","APOAPSIS":"524.584","PERIAPSIS":"521.490","GP_ID":"184283005","CLASSIFICATION_TYPE":"U","MEAN_MOTION_DOT":"0.00001280","BSTAR":"0.00007343000000","SEMIMAJOR_AXIS":"6901.172","NORAD_CAT_ID":"47422","ECCENTRICITY":"0.00022420","ARG_OF_PERICENTER":"198.0071","INCLINATION":"97.4895","MEAN_ANOMALY":"162.1082","LAUNCH_DATE":"2021-01-24","TIME_SYSTEM":"UTC","REF_FRAME":"TEME","OBJECT_NAME":"STARLINK-2208","TLE_LINE1":"1 47422U 21006K   21250.89058227  .00001280  00000-0  73430-4 0  9991","MEAN_MOTION":"15.14322851","TLE_LINE2":"2 47422  97.4895 311.3037 0002242 198.0071 162.1082 15.14322851 34556","RA_OF_ASC_NODE":"311.3037","FILE":"3110443","EPHEMERIS_TYPE":"0","ELEMENT_SET_NO":"999","MEAN_ELEMENT_THEORY":"SGP4","COUNTRY_CODE":"US","REV_AT_EPOCH":"3455","PERIOD":"95.092","MEAN_MOTION_DDOT":"0.0000000000000","EPOCH":"2021-09-07T21:22:26.308128","SITE":"AFETR","OBJECT_TYPE":"PAYLOAD","DECAY_DATE":null,"OBJECT_ID":"2021-006K","RCS_SIZE":"LARGE"},{"MEAN_ANOMALY":"306.2771","INCLINATION":"53.0562","ARG_OF_PERICENTER":"53.8375","TIME_SYSTEM":"UTC","LAUNCH_DATE":"2021-02-04","REF_FRAME":"TEME","PERIAPSIS":"546.069","CENTER_NAME":"EARTH","APOAPSIS":"548.433","CLASSIFICATION_TYPE":"U","MEAN_MOTION_DOT":"-0.00001134","GP_ID":"184284522","SEMIMAJOR_AXIS":"6925.386","BSTAR":"-0.00005725100000","ECCENTRICITY":"0.00017070","NORAD_CAT_ID":"47548","EPHEMERIS_TYPE":"0","FILE":"3110443","ELEMENT_SET_NO":"999","MEAN_MOTION_DDOT":"0.0000000000000","PERIOD":"95.593","COUNTRY_CODE":"US","REV_AT_EPOCH":"3317","MEAN_ELEMENT_THEORY":"SGP4","RCS_SIZE":"LARGE","DECAY_DATE":null,"OBJECT_ID":"2021-009A","OBJECT_TYPE":"PAYLOAD","SITE":"AFETR","EPOCH":"2021-09-07T20:54:49.252896","OBJECT_NAME":"STARLINK-1782","TLE_LINE1":"1 47548U 21009A   21250.87140339 -.00001134  00000-0 -57251-4 0  9990","MEAN_MOTION":"15.06387704","TLE_LINE2":"2 47548  53.0562 191.0037 0001707  53.8375 306.2771 15.06387704 33179","RA_OF_ASC_NODE":"191.0037"},{"TLE_LINE1":"1 47549U 21009B   21250.53597808 -.00000572  00000-0 -19525-4 0  9998","OBJECT_NAME":"STARLINK-1806","RA_OF_ASC_NODE":"192.5038","TLE_LINE2":"2 47549  53.0549 192.5038 0001430  34.0433 326.0648 15.06387716 33728","MEAN_MOTION":"15.06387716","ELEMENT_SET_NO":"999","FILE":"3110370","EPHEMERIS_TYPE":"0","RCS_SIZE":"LARGE","EPOCH":"2021-09-07T12:51:48.506112","SITE":"AFETR","OBJECT_TYPE":"PAYLOAD","OBJECT_ID":"2021-009B","DECAY_DATE":null,"MEAN_MOTION_DDOT":"0.0000000000000","PERIOD":"95.593","MEAN_ELEMENT_THEORY":"SGP4","COUNTRY_CODE":"US","REV_AT_EPOCH":"3372","MEAN_MOTION_DOT":"-0.00000572","CLASSIFICATION_TYPE":"U","GP_ID":"184261304","PERIAPSIS":"546.261","APOAPSIS":"548.242","CENTER_NAME":"EARTH","ECCENTRICITY":"0.00014300","NORAD_CAT_ID":"47549","SEMIMAJOR_AXIS":"6925.386","BSTAR":"-0.00001952500000","INCLINATION":"53.0549","MEAN_ANOMALY":"326.0648","ARG_OF_PERICENTER":"34.0433","REF_FRAME":"TEME","TIME_SYSTEM":"UTC","LAUNCH_DATE":"2021-02-04"},{"FILE":"3110443","EPHEMERIS_TYPE":"0","ELEMENT_SET_NO":"999","COUNTRY_CODE":"US","REV_AT_EPOCH":"3326","MEAN_ELEMENT_THEORY":"SGP4","MEAN_MOTION_DDOT":"0.0000000000000","PERIOD":"95.592","EPOCH":"2021-09-07T13:09:03.328416","SITE":"AFETR","OBJECT_TYPE":"PAYLOAD","DECAY_DATE":null,"OBJECT_ID":"2021-009C","RCS_SIZE":"LARGE","OBJECT_NAME":"STARLINK-1909","TLE_LINE1":"1 47550U 21009C   21250.54795519 -.00000061  00000-0  14798-4 0  9999","MEAN_MOTION":"15.06400144","TLE_LINE2":"2 47550  53.0562 182.4443 0001446  71.2540 288.8606 15.06400144 33261","RA_OF_ASC_NODE":"182.4443","ARG_OF_PERICENTER":"71.2540","INCLINATION":"53.0562","MEAN_ANOMALY":"288.8606","LAUNCH_DATE":"2021-02-04","TIME_SYSTEM":"UTC","REF_FRAME":"TEME","APOAPSIS":"548.215","CENTER_NAME":"EARTH","PERIAPSIS":"546.212","GP_ID":"184283021","CLASSIFICATION_TYPE":"U","MEAN_MOTION_DOT":"-0.00000061","BSTAR":"0.00001479800000","SEMIMAJOR_AXIS":"6925.348","NORAD_CAT_ID":"47550","ECCENTRICITY":"0.00014460"},{"MEAN_MOTION_DOT":"0.00001157","CLASSIFICATION_TYPE":"U","GP_ID":"184256250","PERIAPSIS":"546.190","APOAPSIS":"548.217","CENTER_NAME":"EARTH","ECCENTRICITY":"0.00014640","NORAD_CAT_ID":"47551","SEMIMAJOR_AXIS":"6925.339","BSTAR":"0.00009651900000","MEAN_ANOMALY":"319.2774","INCLINATION":"53.0548","ARG_OF_PERICENTER":"40.8325","REF_FRAME":"TEME","TIME_SYSTEM":"UTC","LAUNCH_DATE":"2021-02-04","TLE_LINE1":"1 47551U 21009D   21250.27703928  .00001157  00000-0  96519-4 0  9990","OBJECT_NAME":"STARLINK-1938","RA_OF_ASC_NODE":"203.6616","TLE_LINE2":"2 47551  53.0548 203.6616 0001464  40.8325 319.2774 15.06403266 32944","MEAN_MOTION":"15.06403266","ELEMENT_SET_NO":"999","EPHEMERIS_TYPE":"0","FILE":"3110255","RCS_SIZE":"LARGE","DECAY_DATE":null,"OBJECT_ID":"2021-009D","SITE":"AFETR","OBJECT_TYPE":"PAYLOAD","EPOCH":"2021-09-07T06:38:56.193792","PERIOD":"95.592","MEAN_MOTION_DDOT":"0.0000000000000","MEAN_ELEMENT_THEORY":"SGP4","COUNTRY_CODE":"US","REV_AT_EPOCH":"3294"}];
